start=new Date('2022-06-15T00:00:00.000Z').valueOf();
sats=[{"INCLINATION":"53.0555","COUNTRY_CODE":"US","OBJECT_TYPE":"PAYLOAD","OBJECT_NAME":"STARLINK-2600","APOAPSIS":"547.416","RA_OF_ASC_NODE":"349.4631","EPOCH":"2022-06-14T18:30:26.097696","TIME_SYSTEM":"UTC","TLE_LINE2":"2 48387  53.0555 349.4631 0001607  48.9660 311.1468 15.06697063 61668","NORAD_CAT_ID":"48387","MEAN_MOTION":"15.06697063","MEAN_ANOMALY":"311.1468","ELEMENT_SET_NO":"999","MEAN_ELEMENT_THEORY":"SGP4","REF_FRAME":"TEME","SEMIMAJOR_AXIS":"6924.438","PERIOD":"95.573","DECAY_DATE":null,"OBJECT_ID":"2021-038AL","BSTAR":"-0.00347070000000","LAUNCH_DATE":"2021-05-04","CENTER_NAME":"EARTH","CLASSIFICATION_TYPE":"U","ECCENTRICITY":"0.00016070","PERIAPSIS":"545.190","RCS_SIZE":"LARGE","MEAN_MOTION_DDOT":"0.0000000000000","TLE_LINE1":"1 48387U 21038AL  22165.77113539 -.00052017  00000-0 -34707-2 0  9996","ARG_OF_PERICENTER":"48.9660","GP_ID":"206168339","SITE":"AFETR","FILE":"3496199","MEAN_MOTION_DOT":"-0.00052017","REV_AT_EPOCH":"6166","EPHEMERIS_TYPE":"0"},{"NORAD_CAT_ID":"48388","TIME_SYSTEM":"UTC","TLE_LINE2":"2 48388  53.0545 349.2143 0001512  69.9880 290.1272 15.06397977 61677","MEAN_MOTION":"15.06397977","MEAN_ANOMALY":"290.1272","ELEMENT_SET_NO":"999","MEAN_ELEMENT_THEORY":"SGP4","SEMIMAJOR_AXIS":"6925.355","REF_FRAME":"TEME","PERIOD":"95.592","OBJECT_ID":"2021-038AM","DECAY_DATE":null,"INCLINATION":"53.0545","OBJECT_TYPE":"PAYLOAD","COUNTRY_CODE":"US","OBJECT_NAME":"STARLINK-2594","RA_OF_ASC_NODE":"349.2143","APOAPSIS":"548.267","EPOCH":"2022-06-14T20:00:30.525696","MEAN_MOTION_DDOT":"0.0000000000000","TLE_LINE1":"1 48388U 21038AM  22165.83368664 -.00000780  00000-0 -33474-4 0  9997","GP_ID":"206168589","ARG_OF_PERICENTER":"69.9880","SITE":"AFETR","FILE":"3496199","MEAN_MOTION_DOT":"-0.00000780","REV_AT_EPOCH":"6167","EPHEMERIS_TYPE":"0","BSTAR":"-0.00003347400000","CLASSIFICATION_TYPE":"U","CENTER_NAME":"EARTH","LAUNCH_DATE":"2021-05-04","ECCENTRICITY":"0.00015120","PERIAPSIS":"546.173","RCS_SIZE":"LARGE"},{"ECCENTRICITY":"0.00014320","RCS_SIZE":"LARGE","PERIAPSIS":"546.223","BSTAR":"0.00003454100000","CLASSIFICATION_TYPE":"U","CENTER_NAME":"EARTH","LAUNCH_DATE":"2021-05-04","FILE":"3496199","EPHEMERIS_TYPE":"0","MEAN_MOTION_DOT":"0.00000233","REV_AT_EPOCH":"6172","TLE_LINE1":"1 48389U 21038AN  22165.75394702  .00000233  00000-0  34541-4 0  9998","GP_ID":"206169339","ARG_OF_PERICENTER":"69.6602","MEAN_MOTION_DDOT":"0.0000000000000","SITE":"AFETR","RA_OF_ASC_NODE":"344.5607","APOAPSIS":"548.206","OBJECT_NAME":"STARLINK-1904","EPOCH":"2022-06-14T18:05:41.022528","INCLINATION":"53.0556","OBJECT_TYPE":"PAYLOAD","COUNTRY_CODE":"US","PERIOD":"95.592","SEMIMAJOR_AXIS":"6925.349","REF_FRAME":"TEME","OBJECT_ID":"2021-038AN","DECAY_DATE":null,"MEAN_ANOMALY":"290.4541","MEAN_MOTION":"15.06399710","NORAD_CAT_ID":"48389","TIME_SYSTEM":"UTC","TLE_LINE2":"2 48389  53.0556 344.5607 0001432  69.6602 290.4541 15.06399710 61728","MEAN_ELEMENT_THEORY":"SGP4","ELEMENT_SET_NO":"999"},{"ELEMENT_SET_NO":"999","MEAN_ELEMENT_THEORY":"SGP4","TIME_SYSTEM":"UTC","TLE_LINE2":"2 48390  53.0552 344.5826 0001551  66.4685 293.6467 15.06397432 62943","NORAD_CAT_ID":"48390","MEAN_ANOMALY":"293.6467","MEAN_MOTION":"15.06397432","DECAY_DATE":null,"OBJECT_ID":"2021-038AP","REF_FRAME":"TEME","SEMIMAJOR_AXIS":"6925.356","PERIOD":"95.592","COUNTRY_CODE":"US","OBJECT_TYPE":"PAYLOAD","INCLINATION":"53.0552","EPOCH":"2022-06-14T18:01:44.719392","OBJECT_NAME":"STARLINK-2586","APOAPSIS":"548.296","RA_OF_ASC_NODE":"344.5826","SITE":"AFETR","MEAN_MOTION_DDOT":"0.0000000000000","TLE_LINE1":"1 48390U 21038AP  22165.75121203 -.00000336  00000-0 -36538-5 0  9999","ARG_OF_PERICENTER":"66.4685","GP_ID":"206170085","MEAN_MOTION_DOT":"-0.00000336","EPHEMERIS_TYPE":"0","REV_AT_EPOCH":"6294","FILE":"3496199","CENTER_NAME":"EARTH","LAUNCH_DATE":"2021-05-04","CLASSIFICATION_TYPE":"U","BSTAR":"-0.00000365380000","PERIAPSIS":"546.147","RCS_SIZE":"LARGE","ECCENTRICITY":"0.00015510"},{"MEAN_MOTION_DDOT":"0.0000000000000","ARG_OF_PERICENTER":"60.4077","TLE_LINE1":"1 48391U 21038AQ  22165.88021914 -.00000168  00000-0  76167-5 0  9996","GP_ID":"206168838","SITE":"AFETR","FILE":"3496199","REV_AT_EPOCH":"6296","MEAN_MOTION_DOT":"-0.00000168","EPHEMERIS_TYPE":"0","BSTAR":"0.00000761670000","LAUNCH_DATE":"2021-05-04","CENTER_NAME":"EARTH","CLASSIFICATION_TYPE":"U","ECCENTRICITY":"0.00018630","PERIAPSIS":"545.906","RCS_SIZE":"LARGE","TLE_LINE2":"2 48391  53.0548 344.0105 0001863  60.4077 299.7097 15.06405702 62967","TIME_SYSTEM":"UTC","NORAD_CAT_ID":"48391","MEAN_MOTION":"15.06405702","MEAN_ANOMALY":"299.7097","ELEMENT_SET_NO":"999","MEAN_ELEMENT_THEORY":"SGP4","REF_FRAME":"TEME","SEMIMAJOR_AXIS":"6925.331","PERIOD":"95.592","DECAY_DATE":null,"OBJECT_ID":"2021-038AQ","INCLINATION":"53.0548","COUNTRY_CODE":"US","OBJECT_TYPE":"PAYLOAD","OBJECT_NAME":"STARLINK-2607","APOAPSIS":"548.486","RA_OF_ASC_NODE":"344.0105","EPOCH":"2022-06-14T21:07:30.933696"},{"MEAN_MOTION_DDOT":"0.0000000000000","TLE_LINE1":"1 48392U 21038AR  22165.87652907  .00000731  00000-0  67964-4 0  9997","GP_ID":"206169088","ARG_OF_PERICENTER":"64.3511","SITE":"AFETR","FILE":"3496199","MEAN_MOTION_DOT":"0.00000731","REV_AT_EPOCH":"6296","EPHEMERIS_TYPE":"0","BSTAR":"0.00006796400000","CLASSIFICATION_TYPE":"U","CENTER_NAME":"EARTH","LAUNCH_DATE":"2021-05-04","ECCENTRICITY":"0.00016770","PERIAPSIS":"546.048","RCS_SIZE":"LARGE","NORAD_CAT_ID":"48392","TLE_LINE2":"2 48392  53.0552 344.0283 0001677  64.3511 295.7651 15.06401371 62969","TIME_SYSTEM":"UTC","MEAN_ANOMALY":"295.7651","MEAN_MOTION":"15.06401371","ELEMENT_SET_NO":"999","MEAN_ELEMENT_THEORY":"SGP4","SEMIMAJOR_AXIS":"6925.344","REF_FRAME":"TEME","PERIOD":"95.592","OBJECT_ID":"2021-038AR","DECAY_DATE":null,"INCLINATION":"53.0552","OBJECT_TYPE":"PAYLOAD","COUNTRY_CODE":"US","OBJECT_NAME":"STARLINK-2605","RA_OF_ASC_NODE":"344.0283","APOAPSIS":"548.371","EPOCH":"2022-06-14T21:02:12.111648"},{"OBJECT_ID":"2021-038AS","DECAY_DATE":null,"SEMIMAJOR_AXIS":"6925.364","REF_FRAME":"TEME","PERIOD":"95.592","ELEMENT_SET_NO":"999","MEAN_ELEMENT_THEORY":"SGP4","NORAD_CAT_ID":"48393","TLE_LINE2":"2 48393  53.0547 344.9376 0001750  64.4505 295.6665 15.06394818 62930","TIME_SYSTEM":"UTC","MEAN_MOTION":"15.06394818","MEAN_ANOMALY":"295.6665","EPOCH":"2022-06-14T16:10:17.158944","OBJECT_NAME":"STARLINK-2602","RA_OF_ASC_NODE":"344.9376","APOAPSIS":"548.441","OBJECT_TYPE":"PAYLOAD","COUNTRY_CODE":"US","INCLINATION":"53.0547","MEAN_MOTION_DOT":"-0.00000875","REV_AT_EPOCH":"6293","EPHEMERIS_TYPE":"0","FILE":"3496199","SITE":"AFETR","MEAN_MOTION_DDOT":"0.0000000000000","GP_ID":"206169839","TLE_LINE1":"1 48393U 21038AS  22165.67380971 -.00000875  00000-0 -39817-4 0  9992","ARG_OF_PERICENTER":"64.4505","PERIAPSIS":"546.018","RCS_SIZE":"LARGE","ECCENTRICITY":"0.00017500","CLASSIFICATION_TYPE":"U","LAUNCH_DATE":"2021-05-04","CENTER_NAME":"EARTH","BSTAR":"-0.00003981700000"},{"BSTAR":"-0.00002289900000","CLASSIFICATION_TYPE":"U","LAUNCH_DATE":"2021-05-04","CENTER_NAME":"EARTH","ECCENTRICITY":"0.00014650","PERIAPSIS":"546.228","RCS_SIZE":"LARGE","MEAN_MOTION_DDOT":"0.0000000000000","ARG_OF_PERICENTER":"56.7699","TLE_LINE1":"1 48394U 21038AT  22165.53743232 -.00000622  00000-0 -22899-4 0  9993","GP_ID":"206138384","SITE":"AFETR","FILE":"3495970","MEAN_MOTION_DOT":"-0.00000622","REV_AT_EPOCH":"6291","EPHEMERIS_TYPE":"0","INCLINATION":"53.0566","OBJECT_TYPE":"PAYLOAD","COUNTRY_CODE":"US","OBJECT_NAME":"STARLINK-2573","RA_OF_ASC_NODE":"345.5450","APOAPSIS":"548.258","EPOCH":"2022-06-14T12:53:54.152448","NORAD_CAT_ID":"48394","TLE_LINE2":"2 48394  53.0566 345.5450 0001465  56.7699 303.3431 15.06390390 62910","TIME_SYSTEM":"UTC","MEAN_MOTION":"15.06390390","MEAN_ANOMALY":"303.3431","ELEMENT_SET_NO":"999","MEAN_ELEMENT_THEORY":"SGP4","SEMIMAJOR_AXIS":"6925.378","REF_FRAME":"TEME","PERIOD":"95.593","OBJECT_ID":"2021-038AT","DECAY_DATE":null},{"COUNTRY_CODE":"US","OBJECT_TYPE":"PAYLOAD","INCLINATION":"53.0566","EPOCH":"2022-06-14T20:19:51.388320","APOAPSIS":"550.553","RA_OF_ASC_NODE":"344.7796","OBJECT_NAME":"STARLINK-2574","MEAN_ELEMENT_THEORY":"SGP4","ELEMENT_SET_NO":"999","MEAN_ANOMALY":"327.8339","MEAN_MOTION":"15.05770763","TIME_SYSTEM":"UTC","TLE_LINE2":"2 48395  53.0566 344.7796 0002036  32.2774 327.8339 15.05770763 62950","NORAD_CAT_ID":"48395","DECAY_DATE":null,"OBJECT_ID":"2021-038AU","PERIOD":"95.632","REF_FRAME":"TEME","SEMIMAJOR_AXIS":"6927.278","LAUNCH_DATE":"2021-05-04","CENTER_NAME":"EARTH","CLASSIFICATION_TYPE":"U","BSTAR":"0.02336700000000","RCS_SIZE":"LARGE","PERIAPSIS":"547.732","ECCENTRICITY":"0.00020360","SITE":"AFETR","ARG_OF_PERICENTER":"32.2774","TLE_LINE1":"1 48395U 21038AU  22165.84712255  .00359921  00000-0  23367-1 0  9994","GP_ID":"206168340","MEAN_MOTION_DDOT":"0.0000000000000","MEAN_MOTION_DOT":"0.00359921","REV_AT_EPOCH":"6295","EPHEMERIS_TYPE":"0","FILE":"3496199"},{"PERIAPSIS":"546.144","RCS_SIZE":"LARGE","ECCENTRICITY":"0.00016120","CLASSIFICATION_TYPE":"U","LAUNCH_DATE":"2021-05-04","CENTER_NAME":"EARTH","BSTAR":"-0.00003339700000","MEAN_MOTION_DOT":"-0.00000779","EPHEMERIS_TYPE":"0","REV_AT_EPOCH":"6295","FILE":"3496199","SITE":"AFETR","MEAN_MOTION_DDOT":"0.0000000000000","GP_ID":"206168590","TLE_LINE1":"1 48396U 21038AV  22165.79913603 -.00000779  00000-0 -33397-4 0  9992","ARG_OF_PERICENTER":"84.3571","EPOCH":"2022-06-14T19:10:45.352992","OBJECT_NAME":"STARLINK-2575","RA_OF_ASC_NODE":"344.3728","APOAPSIS":"548.377","OBJECT_TYPE":"PAYLOAD","COUNTRY_CODE":"US","INCLINATION":"53.0559","OBJECT_ID":"2021-038AV","DECAY_DATE":null,"SEMIMAJOR_AXIS":"6925.395","REF_FRAME":"TEME","PERIOD":"95.593","ELEMENT_SET_NO":"999","MEAN_ELEMENT_THEORY":"SGP4","NORAD_CAT_ID":"48396","TIME_SYSTEM":"UTC","TLE_LINE2":"2 48396  53.0559 344.3728 0001612  84.3571 275.7602 15.06384731 62957","MEAN_MOTION":"15.06384731","MEAN_ANOMALY":"275.7602"}];
